     3.04           N: GNSS NAV DATA    G: GPS              RINEX VERSION / TYPE
JPS2RIN v.2.0.191   JAVAD GNSS          20210127 000545 UTC PGM / RUN BY / DATE
    18                                                      LEAP SECONDS
GODS                                    MARKER NAME         COMMENT
40451M128                               MARKER NUMBER       COMMENT
  1130752.3120 -4831349.1180  3994098.9450                  COMMENT
                                                            END OF HEADER
G26 2021 01 26 16 00 00 3.570131957531D-05 5.570655048359D-12 0.000000000000D+00
     7.500000000000D+01 6.246875000000D+01 4.630192866118D-09-2.716692181934D-01
     3.168359398842D-06 5.663897260092D-03 1.014210283756D-05 5.153749568939D+03
     2.304000000000D+05 9.126961231232D-08 2.831142316830D+00 5.960464477539D-08
     9.437099470215D-01 1.745312500000D+02 2.602294899342D-01-8.039263439020D-09
    -4.378753821244D-10 1.000000000000D+00 2.142000000000D+03 0.000000000000D+00
     2.000000000000D+00 0.000000000000D+00 6.984919000000D-09 7.500000000000D+01
     2.253900000000D+05 4.000000000000D+00
G29 2021 01 26 16 00 00-2.831644378603D-04-7.162270776462D-12 0.000000000000D+00
     5.000000000000D+00 9.881250000000D+01 4.065883646088D-09-2.028151401972D+00
     5.081295967102D-06 1.467402093112D-03 2.928078174591D-06 5.153692163467D+03
     2.304000000000D+05-3.725290298462D-08-2.293106567881D+00 5.960464477539D-08
     9.847300895037D-01 3.351875000000D+02 2.185629247683D+00-8.046763751438D-09
     1.982225424788D-10 1.000000000000D+00 2.142000000000D+03 0.000000000000D+00
     2.000000000000D+00 0.000000000000D+00-1.024455000000D-08 5.000000000000D+00
     2.293800000000D+05 4.000000000000D+00
G31 2021 01 26 16 00 00-9.626708924770D-05-2.273736754432D-12 0.000000000000D+00
     8.700000000000D+01-1.556250000000D+01 5.006637117961D-09 8.886533308582D-01
    -5.494803190231D-07 9.976854547858D-03 6.435438990593D-06 5.153720947266D+03
     2.304000000000D+05 1.117587089539D-08 1.850267924937D+00 1.508742570877D-07
     9.559817128641D-01 2.501562500000D+02 2.400248752566D-01-8.177483482154D-09
    -5.843100531448D-10 1.000000000000D+00 2.142000000000D+03 0.000000000000D+00
     2.000000000000D+00 0.000000000000D+00-1.303852000000D-08 8.700000000000D+01
     2.232300000000D+05 4.000000000000D+00
G32 2021 01 26 16 00 00 1.620128750801D-05 1.705302565824D-12 0.000000000000D+00
     6.100000000000D+01 1.484375000000D+01 4.882703384195D-09-1.357777814587D+00
     8.326023817062D-07 4.482105490752D-03 7.314607501030D-06 5.153624595642D+03
     2.304000000000D+05 5.401670932770D-08 7.698456428411D-01 1.117587089539D-08
     9.571111426751D-01 2.358125000000D+02-2.449898761443D+00-8.007833558410D-09
     5.628805890930D-10 1.000000000000D+00 2.142000000000D+03 0.000000000000D+00
     2.000000000000D+00 0.000000000000D+00 4.656613000000D-10 6.100000000000D+01
     2.232300000000D+05 4.000000000000D+00
G01 2021 01 26 18 00 00 7.732631638646D-04-6.934897101019D-12 0.000000000000D+00
     7.900000000000D+01-8.828125000000D+01 3.940164123651D-09 3.039756623459D+00
    -4.582107067108D-06 1.030791376252D-02 2.315267920494D-06 5.153692974091D+03
     2.376000000000D+05 7.450580596924D-09-1.308176245854D+00-1.043081283569D-07
     9.827981949983D-01 3.465625000000D+02 8.198589059800D-01-7.886042771050D-09
    -1.428630936784D-10 1.000000000000D+00 2.142000000000D+03 0.000000000000D+00
     2.000000000000D+00 0.000000000000D+00 4.656613000000D-09 7.900000000000D+01
     2.304300000000D+05 4.000000000000D+00
G03 2021 01 26 18 00 00-6.651319563389D-05-9.890754881781D-12 0.000000000000D+00
     2.000000000000D+01-9.109375000000D+01 3.965522322779D-09 1.881448405809D+00
    -4.693865776062D-06 3.266749670729D-03 1.038238406181D-05 5.153672138214D+03
     2.376000000000D+05-5.215406417847D-08-2.694415114119D-01-7.450580596924D-08
     9.685083117215D-01 1.814375000000D+02 8.636442474381D-01-7.685320124431D-09
     2.578678840896D-10 1.000000000000D+00 2.142000000000D+03 0.000000000000D+00
     2.000000000000D+00 0.000000000000D+00 1.862645000000D-09 2.000000000000D+01
     2.304300000000D+05 4.000000000000D+00
G04 2021 01 26 18 00 00-1.757116988301D-04-2.842170943040D-12 0.000000000000D+00
     1.730000000000D+02 1.859375000000D+01 4.796271212519D-09-1.518835450096D+00
     7.618218660355D-07 1.070674508810D-03 7.200986146927D-06 5.153588260651D+03
     2.376000000000D+05 3.725290298462D-08 8.101468269186D-01 2.048909664154D-08
     9.602395359338D-01 2.397812500000D+02-3.039935315976D+00-8.024262814183D-09
     5.585946962827D-10 1.000000000000D+00 2.142000000000D+03 0.000000000000D+00
     2.000000000000D+00 0.000000000000D+00-4.190952000000D-09 4.290000000000D+02
     2.314800000000D+05 4.000000000000D+00
G09 2021 01 26 18 00 00-3.167921677232D-04-3.865352482535D-12 0.000000000000D+00
     6.700000000000D+01 1.759375000000D+01 4.984493338441D-09-6.129664656337D-01
     7.171183824539D-07 1.991226221435D-03 7.554888725281D-06 5.153570798874D+03
     2.376000000000D+05-5.587935447693D-09 7.602831369129D-01 1.862645149231D-09
     9.530994965340D-01 2.341250000000D+02 1.800797239096D+00-8.124981295227D-09
     5.732381633847D-10 1.000000000000D+00 2.142000000000D+03 0.000000000000D+00
     2.000000000000D+00 0.000000000000D+00 1.396984000000D-09 6.700000000000D+01
     2.374200000000D+05 4.000000000000D+00
G10 2021 01 26 18 00 00-4.785647615790D-05-8.412825991400D-12 0.000000000000D+00
     6.100000000000D+01-9.596875000000D+01 4.071955327570D-09 1.010382773492D+00
    -4.954636096954D-06 6.418182398193D-03 1.009553670883D-05 5.153675317764D+03
     2.376000000000D+05-4.470348358154D-08-2.723753043819D-01 8.195638656616D-08
     9.684096496004D-01 1.905937500000D+02-2.608861018425D+00-7.729250525737D-09
     1.553636143753D-10 1.000000000000D+00 2.142000000000D+03 0.000000000000D+00
     2.000000000000D+00 0.000000000000D+00 2.328306000000D-09 6.100000000000D+01
     2.304300000000D+05 4.000000000000D+00
G16 2021 01 26 18 00 00-2.708407118917D-04-5.570655048359D-12 0.000000000000D+00
     9.700000000000D+01 7.675000000000D+01 4.022667560250D-09-1.418219187893D-01
     4.122033715248D-06 1.210099924356D-02 1.037493348122D-05 5.153642353058D+03
     2.376000000000D+05 6.519258022308D-08 2.961595132656D+00 1.471489667892D-07
     9.756158055829D-01 1.852187500000D+02 6.453576019174D-01-7.828540375844D-09
    -3.260850113210D-10 1.000000000000D+00 2.142000000000D+03 0.000000000000D+00
     2.000000000000D+00 0.000000000000D+00-1.024455000000D-08 9.700000000000D+01
     2.304300000000D+05 4.000000000000D+00
G21 2021 01 26 18 00 00 9.022001177073D-05 3.296918293927D-12 0.000000000000D+00
     6.000000000000D+01-6.962500000000D+01 4.734840082237D-09-8.292348591318D-01
    -3.602355718613D-06 2.424312289804D-02 2.639368176460D-06 5.153727363586D+03
     2.376000000000D+05-3.594905138016D-07-1.388673741801D+00 4.470348358154D-08
     9.556688897767D-01 3.325000000000D+02-1.204878728378D+00-8.772151109590D-09
     8.607501394126D-11 1.000000000000D+00 2.142000000000D+03 0.000000000000D+00
     2.000000000000D+00 0.000000000000D+00-1.024455000000D-08 6.000000000000D+01
     2.304900000000D+05 4.000000000000D+00
G22 2021 01 26 18 00 00-6.911423988640D-04 6.934897101019D-12 0.000000000000D+00
     6.900000000000D+01-9.868750000000D+01 4.725553981148D-09-2.070723533764D+00
    -4.924833774567D-06 6.897780345753D-03 9.730458259583D-06 5.153626697540D+03
     2.376000000000D+05-2.980232238770D-08-3.645883076636D-01 1.490116119385D-07
     9.338432228900D-01 1.761875000000D+02-1.045672992089D+00-8.040692069956D-09
     2.007226466182D-10 1.000000000000D+00 2.142000000000D+03 0.000000000000D+00
     2.000000000000D+00 0.000000000000D+00-1.816079000000D-08 6.900000000000D+01
     2.304300000000D+05 4.000000000000D+00
G25 2021 01 26 18 00 00 6.778957322240D-05 7.730704965070D-12 0.000000000000D+00
     4.100000000000D+01 8.040625000000D+01 4.208032424298D-09 1.390477265245D+00
     4.181638360024D-06 9.722612798214D-03 1.161545515060D-05 5.153685392380D+03
     2.376000000000D+05-2.123415470123D-07 2.870882087077D+00 5.960464477539D-08
     9.627657891853D-01 1.575312500000D+02 9.364102974075D-01-7.842112369743D-09
    -4.482329564161D-10 1.000000000000D+00 2.142000000000D+03 0.000000000000D+00
     2.000000000000D+00 0.000000000000D+00 5.587935000000D-09 4.100000000000D+01
     2.304300000000D+05 4.000000000000D+00
G26 2021 01 26 18 00 00 3.574183210731D-05 5.570655048359D-12 0.000000000000D+00
     7.600000000000D+01 6.256250000000D+01 4.718410826464D-09 7.784099646538D-01
     3.494322299957D-06 5.663223098964D-03 1.036003232002D-05 5.153748495102D+03
     2.376000000000D+05 2.235174179077D-08 2.831084708579D+00 1.136213541031D-07
     9.437068412465D-01 1.661875000000D+02 2.602868377858D-01-8.000690403726D-09
    -4.746626287466D-10 1.000000000000D+00 2.142000000000D+03 0.000000000000D+00
     2.000000000000D+00 0.000000000000D+00 6.984919000000D-09 7.600000000000D+01
     2.304300000000D+05 4.000000000000D+00
G27 2021 01 26 18 00 00-6.392924115062D-05-7.617018127348D-12 0.000000000000D+00
     5.200000000000D+01 1.025000000000D+02 4.119100148483D-09-1.051443112575D+00
     5.345791578293D-06 8.921072818339D-03 3.371387720108D-06 5.153677684784D+03
     2.376000000000D+05 2.216547727585D-07-2.365322892736D+00 3.725290298462D-08
     9.768978718775D-01 3.232500000000D+02 5.684841739105D-01-8.068550373224D-09
     1.346484657919D-10 1.000000000000D+00 2.142000000000D+03 0.000000000000D+00
     2.000000000000D+00 0.000000000000D+00 1.862645000000D-09 5.200000000000D+01
     2.368200000000D+05 4.000000000000D+00
